
APRIZESAT 10
1 40019U 14033K   26170.30352710  .00000338  00000+0  61258-4 0  9991
2 40019  97.9653 297.2157 0077401 266.9613  92.2734 14.70884001642563

APRIZESAT 3
1 35686U 09041F   26170.17209211  .00001577  00000+0  14014-3 0  9993
2 35686  98.2067 323.4908 0062794  61.3500 299.4015 14.96247734916670

APRIZESAT 4
1 35684U 09041D   26170.21255956  .00000473  00000+0  63238-4 0  9990
2 35684  98.1412 245.5735 0042281 316.3381  43.4490 14.83881619911662

APRIZESAT 5
1 37792U 11044E   26170.23668001  .00000855  00000+0  11523-3 0  9992
2 37792  98.2452 103.3352 0052173 357.7510   2.3459 14.81079952799096

APRIZESAT 6
1 37793U 11044F   26170.25855280  .00000600  00000+0  91795-4 0  9990
2 37793  98.2362  80.8004 0044479  79.6185  42.8242 14.76918592797451

APRIZESAT 7
1 39416U 13066A   26170.30068819  .00000826  00000+0  87147-4 0  9996
2 39416  97.7709 123.4902 0035164 202.1029 157.8676 14.91567872681544

APRIZESAT 8
1 39425U 13066K   26170.29380600  .00000701  00000+0  81917-4 0  9990
2 39425  97.8221 117.7323 0044379 279.3934  80.2266 14.87655918679989

APRIZESAT 9
1 40018U 14033J   26170.17595964  .00000554  00000+0  88749-4 0  9999
2 40018  97.9064 303.3260 0065847 192.7438 167.2109 14.74216862643854

BUGSAT-1 (TITA)
1 40014U 14033E   26170.28098907  .00004976  00000+0  26337-3 0  9998
2 40014  98.0426 262.9521 0028299 171.4015 188.7707 15.15603716656152

CUBESAT XI-IV (CO-57)
1 27848U 03031J   26169.99348946  .00000173  00000+0  94896-4 0  9992
2 27848  98.6765 178.2408 0009145 191.5731 168.5239 14.23621647191638

CUTE-1 (CO-55)
1 27844U 03031E   26170.28511223  .00000210  00000+0  10996-3 0  9992
2 27844  98.6736 178.8176 0009679 171.9692 188.1644 14.24336816191977

FLYING LAPTOP
1 42831U 17042G   26170.31856334  .00002429  00000+0  19330-3 0  9996
2 42831  97.4699 325.7687 0019650 114.7791 245.5481 15.01156173486774

HAWK-2A
1 47505U 21006CW  26170.17603458  .00005413  00000+0  16320-3 0  9997
2 47505  97.2315 215.1253 0006339 181.6961 178.4262 15.34698574299802

HAWK-2B
1 47508U 21006CZ  26170.10625737  .00005667  00000+0  17025-3 0  9991
2 47508  97.2184 213.3857 0006940 180.3205 179.8035 15.34787353299799

HAWK-2C
1 47502U 21006CT  26170.17356150  .00005394  00000+0  16271-3 0  9991
2 47502  97.2274 214.4440 0006914 178.8250 181.3011 15.34683751299807

HAWK-3A
1 48957U 21059CG  26170.10882589  .00037913  00000+0  31985-3 0  9998
2 48957  97.6722   9.8908 0003422 324.9397  35.1639 15.69711367278156

HAWK-3B
1 48931U 21059BE  26170.10930515  .00036797  00000+0  31072-3 0  9999
2 48931  97.6658   6.9986 0003170 321.2469  38.8564 15.69695415278152

HAWK-3C
1 48948U 21059BX  26170.10898379  .00038765  00000+0  32725-3 0  9991
2 48948  97.6778  12.6871 0003417 323.0732  37.0294 15.69691623278155

HAWK-5B
1 52756U 22057AA  26170.17243561  .00016456  00000+0  28031-3 0  9994
2 52756  97.6616 328.3162 0005547  70.1865 289.9984 15.51453092226650

HAWK-5C
1 52754U 22057Y   26170.17258878  .00016161  00000+0  27539-3 0  9994
2 52754  97.6609 329.9671 0004882  77.5370 282.6427 15.51451275226658

HAWK-A
1 43765U 18099H   26170.12014246  .00004819  00000+0  19510-3 0  9998
2 43765  97.3908 222.3311 0033079 278.7174  81.0317 15.24660995413392

HAWK-B
1 43794U 18099AN  26170.07827525  .00004709  00000+0  20175-3 0  9993
2 43794  97.3957 221.7010 0030385 297.9405  61.8756 15.22842337413320

HAWK-C
1 43799U 18099AT  26170.09231104  .00006022  00000+0  21764-3 0  9997
2 43799  97.3885 223.2253 0038707 278.7308  80.9549 15.28124217414202

PROBA-1
1 26958U 01049B   26170.26072495  .00001146  00000+0  77400-4 0  9998
2 26958  97.9594 178.8661 0056488 115.0489 245.6617 15.07499000343939

PROBA-2
1 36037U 09059B   26170.23496414  .00000119  00000+0  38341-4 0  9994
2 36037  98.2451 353.5593 0011943 275.0449  84.9385 14.54863134881825

PROBA-V
1 39159U 13021A   26169.38428133  .00000046  00000+0  38301-4 0  9998
2 39159  98.3584 147.9318 0005185 120.6226 239.5465 14.23597149681281

SALSAT
1 46495U 20068K   26169.97697596  .00005999  00000+0  21050-3 0  9998
2 46495  97.8853 173.1506 0007950 300.6759  59.3696 15.29820569315637

SAUDISAT 4
1 40016U 14033G   26170.21537237  .00000506  00000+0  73212-4 0  9997
2 40016  97.7586 316.2798 0046094  67.5914 293.0172 14.79547025646370

TECHDEMOSAT-1 (TDS-1)
1 40076U 14037H   26169.94379529  .00006132  00000+0  34856-3 0  9994
2 40076  98.3815 162.3305 0004595 257.7313 102.3401 15.13313187648499

TECHNOSAT
1 42829U 17042E   26170.17743574  .00002913  00000+0  20885-3 0  9993
2 42829  97.4295 327.7591 0019096  87.9801 272.3613 15.04973153487006
